#dP2021  9 30  0  0  0.00000000      97 __u+U IGS14 FIT  IAC
## 2177 345600.00000000   900.00000000 59487 0.0000000000000
+  122   C01C02C03C04C05C06C07C08C09C10C11C12C13C14C16C19C20
+        C21C22C23C24C25C26C27C28C29C30C32C33C34C35C36C37C38
+        C39C40C41C42C43C44C45C46C60E01E02E03E04E05E07E08E09
+        E11E12E13E14E15E18E19E21E24E25E26E27E30E31E33E36G01
+        G02G03G04G05G06G07G08G09G10G12G13G14G15G16G17G18G19
+        G20G21G22G23G24G25G26G27G28G29G30G31G32J01J02J03J07
+        R01R02R03R04R05R07R08R09R12R13R14R15R16R17R18R19R20
+        R21R22R24  0  0  0  0  0  0  0  0  0  0  0  0  0  0
++         0  0  0  0  0  0  0  0  0  0  0  0  0  0  0  0  0
++         0  0  0  0  0  0  0  0  0  0  0  0  0  0  0  0  0
++         0  0  0  0  0  0  0  0  0  0  0  0  0  0  0  0  0
++         0  0  0  0  0  0  0  0  0  0  0  0  0  0  0  0  0
++         0  0  0  0  0  0  0  0  0  0  0  0  0  0  0  0  0
++         0  0  0  0  0  0  0  0  0  0  0  0  0  0  0  0  0
++         0  0  0  0  0  0  0  0  0  0  0  0  0  0  0  0  0
++         0  0  0  0  0  0  0  0  0  0  0  0  0  0  0  0  0
%c M  cc GPS ccc cccc cccc cccc cccc ccccc ccccc ccccc ccccc
%c cc cc ccc ccc cccc cccc cccc cccc ccccc ccccc ccccc ccccc
%f  1.2500000  1.025000000  0.00000000000  0.000000000000000
%f  0.0000000  0.000000000  0.00000000000  0.000000000000000
%i    0    0    0    0      0      0      0      0         0
%i    0    0    0    0      0      0      0      0         0
/* INFORMATION & ANALYSIS CENTER (IAC)            FINAL DATA
/* S/V CLOCKS ARE ALIGNED TO GNSS TIME                      
/* G:C1WC2W R:C1PC2P E:C1XC5X C:C2IC6I J:C1CC2S             
/* PCV:IGS14_2163 OL/AL:FES2004  NONE     YN ORB:CoN CLK:CoN
*  2021 09 30  5 45  0.00000000
PC01 -34347.391571  24413.080041    -64.350655   -592.487686
PC02   4355.950476  41965.891306    984.020901    291.469322
PC03 -14862.420676  39465.609951    970.182272    -96.626939
PC04 -39596.556238  14468.447825   -316.548101    113.083928
PC05  21893.390053  36020.327011   1291.017316    251.154481
PC06  -5386.650082  39542.188325  13872.829501    264.890041
PC07  -9222.401892  25114.175649 -32583.791408   -159.950823
PC08 -19285.725907  30952.956687  21024.526719   -911.163300
PC09   -568.385989  42118.957678   5213.735823   -146.181169
PC10   -471.494860  27147.167391 -31942.841858      3.502545
PC11  -4531.625616 -27169.773770  -4576.221440    603.824153
PC12   6723.469443 -23973.671761  12670.026800    748.006804
PC13 -11486.730529  31037.842271  26046.949932    426.162714
PC14 -11130.094663 -18648.104433 -17541.605940    614.340989
PC16  -7109.127482  38058.061464  17094.094215   -785.552771
PC19  19750.967980  16924.618511  10104.127317    955.225804
PC20   2596.730198  17594.310176  21502.408141   -797.168716
PC21  17077.150190  -7742.126308 -20655.160903   -931.787725
PC22  26053.898320   6429.965154  -7616.170655   -954.521122
PC23 -23222.083096   2632.596429  15259.459504   -965.506984
PC24   9286.486200 -20600.656998  16391.547224   -968.767001
PC25 -10985.367233 -12042.277487  22648.003749   -847.272005
PC26  21877.297238 -17272.794972   1693.714496    842.892488
PC27 -11960.685051  16710.295535 -18902.221096    605.461573
PC28 -15892.617335  -4050.182241 -22576.004495    -20.535158
PC29  11341.403453  21950.267153  12962.298878    453.988513
PC30   -399.026339  27508.389874  -4728.465020    482.083514
PC32 -17099.117744   7832.092237  20624.309082   -955.162957
PC33 -19798.663630 -16854.168422 -10157.914941   -967.895830
PC34   -107.052674 -27623.443089   3894.232589   -570.663666
PC35  16088.962211   3990.768160  22447.001260    -68.644080
PC36  10324.116214  12553.994709 -22652.530075   -768.776415
PC37 -22677.636027  16226.187259   -720.171051   -869.345229
PC38 -24272.863564  31684.170682  13308.803995    178.923008
PC39  -9070.735763  34554.331945  22505.397306     33.408365
PC40 -13074.921161  18761.897992 -35428.407532    204.071066
PC41 -26126.980800  -6572.566287   7306.315969   -929.515576
PC42  -1699.438723 -17405.794324 -21715.018185   -966.790924
PC43 -11036.045802 -22393.319046 -12460.426998   -937.699439
PC44  11576.192859 -16906.635525  18925.154012    412.854696
PC45  23253.692689  -2925.200415 -15154.116415    561.122790
PC46  -8112.075585  20369.196552 -17229.996120     61.843562
PC60   7297.861844  41513.214100   -439.008083     -0.729034
PE01  11406.067855 -16225.304810  21983.783371   -485.355849
PE02 -11236.013218  16242.102049 -22036.044928    250.246393
PE03  -1015.939849  22032.897605  19726.825142   -480.017365
PE04 -14882.608280 -25217.797951  -4338.697881   -867.535471
PE05 -16594.222222   5857.133678  23798.194244   -245.449785
PE07  22315.207871  13528.031809 -13961.967658   -590.937289
PE08  15260.386395  25038.891718   3988.437494   5929.442765
PE09 -22319.660740 -13328.508905  14167.276485   5514.504466
PE11 -15767.713856  -4106.555232 -24721.960128   5346.294574
PE12  -3391.298456 -22853.003121 -18503.768871   4984.525378
PE13  15492.473813   4588.747277  24802.719878    422.065067
PE14  11602.486173 -10871.121752  18160.805797  -1588.317870
PE15   3395.022665  22833.494158  18527.139908    789.479404
PE18 -19138.852146   7113.625837 -24692.338412  -1743.893304
PE19   3060.112006 -20576.851531 -21057.329195    390.251287
PE21  26824.182781  -8990.124098   8717.805310   -690.856990
PE24 -27039.174462  -4635.813966  11086.510257  -1145.195320
PE25 -26938.666971   8843.392490  -8483.289821   -548.390823
PE26  18456.420998 -17062.502478  15646.324898   1285.234083
PE27  27529.774392   3811.345726 -10185.657256   -131.640828
PE30  10713.084566  14775.790525 -23305.834137   2578.984893
PE31 -12028.003805 -14290.703676  22977.921315   -486.197574
PE33  10676.649765 -27577.360974  -1346.468669   -464.328760
PE36 -18433.154817  16278.957627 -16469.697916   -269.395031
PG01  13783.740489 -22461.705770  -1337.981038    553.013036
PG02 -17917.505834   7624.405901 -17447.053711   -635.028451
PG03  13069.374094 -12658.835498 -19418.612819   -307.415540
PG04   4203.548055 -19597.812838 -17390.404904   -204.097105
PG05 -24044.208691   6338.184326   9388.147626    -56.080227
PG06 -12749.679039  -7257.698438 -22080.403473     84.550110
PG07   1944.779337 -22051.972279  14674.430471    254.299503
PG08  11921.800750  -9502.734274  21714.129718    -38.337567
PG09  -6096.223289 -24373.164851  -8647.695599   -361.521087
PG10  17974.945875  11761.579614  15924.126201   -213.815086
PG12 -14711.654768  11383.463694 -19157.706777   -104.652375
PG13 -15348.364102    985.054900  21523.997646    192.699694
PG14 -17516.735199 -12627.664772  15499.214747     -9.220160
PG15 -11079.157258  11406.898468  20854.413958   -117.444316
PG16  26119.072170   -295.038630   5765.623523   -399.099564
PG17 -12888.547513 -22791.005643  -3985.969605    512.165249
PG18  -1362.748976  21304.781141  15730.167396    316.352882
PG19 -15969.547723 -17023.448564 -13094.747256     59.587690
PG20 -26309.377351   1070.518784  -2145.210585    518.880539
PG21  16893.626605 -18514.043637   8576.749468    145.280699
PG22  19730.189845 -11075.746047 -13574.013714   -500.893379
PG23   6001.730887  14814.394395  21200.420425     51.081206
PG24 -14828.602489  21398.258159   3742.276723    245.053685
PG25  -3335.640684  15153.538582 -21801.464565    216.626302
PG26  25237.616391   5211.567357  -7075.659974    139.749396
PG27  16590.066116   1776.970019  20572.169700   -199.845773
PG28 -21960.859719 -10630.820765  10791.246228    491.580923
PG29   1941.930938  23938.010748 -11310.350871   -419.256336
PG30  -7728.927320 -15257.083822  20335.938241   -477.842851
PG31  14825.313778   5264.380838 -21542.640539   -142.438013
PG32  16138.938504  19890.192919  -7254.560078     -5.284769
PJ01 -26324.592150  21225.750243  30108.952813    187.276407
PJ02 -34710.657025  17571.275491 -11655.624999     -2.955797
PJ03 -20836.917883  28864.367176 -17963.666389     -2.880786
PJ07 -25385.490879  33652.009939     41.302980     -0.041463
PR01 -18505.770274  -2617.371070  17359.506825     86.021188
PR02  -2201.705578  11626.262337  22639.594523    495.017842
PR03  13517.878896  17378.987071  12966.317168     43.853974
PR04  21396.791223  13355.235728  -3826.055480    107.142902
PR05  17444.015856   2025.331397 -18508.026563     79.841948
PR07 -13983.774707 -17363.029780 -12320.205677    -40.926825
PR08 -21447.909438 -13207.467638   3990.341072    -61.236346
PR09  14409.549865 -14854.389129  14882.764389     15.813165
PR12 -23528.070835   9617.495179   2065.368645    266.133459
PR13 -15276.098897  14661.933199 -14234.053246    -61.425924
PR14   2686.521461  10932.399892 -22871.748582     69.370500
PR15  18356.445274    985.283195 -17656.723668    101.147422
PR16  23175.468567 -10793.722209   -805.675940    -22.325901
PR17   1781.883109  23604.948803   9445.982355    462.670999
PR18   8376.154296  11164.936859  21374.483293     92.147774
PR19  10821.933312  -5995.296253  22308.574168   -161.288682
PR20   7154.898095 -22836.996486   8792.815834    -56.742900
PR21  -2246.877727 -23087.641249 -10654.437258   -243.121234
PR22  -8580.390996 -10084.240200 -21797.766760   -136.126785
PR24  -6603.930580  23283.703623  -8003.061656     60.706266
EOF
